LEMUR-2-MCCAFFERTY      
1 43123U 18004N   21276.74623202  .00005214  00000-0  19242-3 0  9993
2 43123  97.4054 352.1590 0009165 170.2212 189.9207 15.28174625207292
LEMUR-2-PETERWEBSTER    
1 43124U 18004P   21276.77130085  .00006200  00000-0  22930-3 0  9993
2 43124  97.4055 352.0008 0009086 168.9420 191.2021 15.28024978207299
LEMUR-2-BROWNCOW        
1 43125U 18004Q   21276.49000953  .00007146  00000-0  25589-3 0  9996
2 43125  97.4087 352.6738 0008882 167.9289 192.2166 15.29034137207308
LEMUR-2-DAVEWILSON      
1 43126U 18004R   21276.52015948  .00007896  00000-0  28340-3 0  9991
2 43126  97.4080 352.4467 0008991 169.0585 191.0853 15.28922716207298
DEMOSAT 2               
1 43127U 18004S   21276.43120475  .00002956  00000-0  12157-3 0  9995
2 43127  97.3974 348.3282 0009242 180.4940 179.6291 15.24914893207067
ARKYD 6A                
1 43130U 18004V   21276.42765668  .00003512  00000-0  14158-3 0  9999
2 43130  97.3993 349.0035 0009248 179.7840 180.3404 15.25458117207093
MICROMAS-2A             
1 43131U 18004W   21276.78024576  .00006301  00000-0  23135-3 0  9999
2 43131  97.4044 352.0285 0008529 169.4365 190.7055 15.28260914207302
PICSAT                  
1 43132U 18004X   21276.77089230  .00004568  00000-0  17814-3 0  9997
2 43132  97.4019 350.3302 0008972 176.2693 183.8614 15.26410121207206
CNUSAIL-1               
1 43133U 18004Y   21276.47966482  .00003465  00000-0  14046-3 0  9997
2 43133  97.3984 348.8387 0009099 179.8804 180.2438 15.25280554207092
2018-004Z               
1 43134U 18004Z   21276.78326633  .00003908  00000-0  15469-3 0  9992
2 43134  97.4004 349.9473 0008939 177.7540 182.3740 15.25997609207175
2018-004AA              
1 43135U 18004AA  21276.47073683  .00005534  00000-0  21098-3 0  9995
2 43135  97.4024 350.6257 0008807 176.0443 184.0867 15.27067111207194
2018-004AB              
1 43136U 18004AB  21276.77519747  .00005694  00000-0  21334-3 0  9995
2 43136  97.4048 351.6040 0008632 174.0996 186.0346 15.27636012207263
FOX-1D (AO-92)          
1 43137U 18004AC  21276.17228949  .00003669  00000-0  14666-3 0  9991
2 43137  97.3989 349.0830 0008613 180.6765 179.4463 15.25717971207089
SPACEBEE-4              
1 43139U 18004AE  21276.76093020  .00010253  00000-0  34488-3 0  9999
2 43139  97.4117 354.8613 0007875 165.9679 194.1782 15.30964157207441
SPACEBEE-3              
1 43140U 18004AF  21276.53188433  .00014251  00000-0  44662-3 0  9996
2 43140  97.4153 356.4907 0007391 161.7087 198.4422 15.33159485207527
SPACEBEE-2              
1 43141U 18004AG  21276.49200225  .00016280  00000-0  49745-3 0  9997
2 43141  97.4174 357.1640 0007215 160.5127 199.6393 15.33937394207556
SPACEBEE-1              
1 43142U 18004AH  21276.47649466  .00016383  00000-0  48585-3 0  9995
2 43142  97.4186 357.8769 0007228 158.4140 201.7409 15.34881489207584
CICERO 7                
1 43143U 18004AJ  21276.21269908  .00006847  00000-0  25281-3 0  9999
2 43143  97.4015 351.4467 0006696 178.1719 181.9546 15.28055415207238
TYVAK-61C               
1 43144U 18004AK  21276.78310610  .00006172  00000-0  22337-3 0  9999
2 43144  97.4080 353.4425 0007033 181.2532 178.8691 15.28757941207386
LKW-3                   
1 43146U 18006A   21276.91080462  .00002584  00000-0  11200-3 0  9997
2 43146  97.4607  35.4785 0002698 170.1021 304.7415 15.23283317206997
ASNARO-2                
1 43152U 18007A   21276.28885417 -.00000067  00000-0  86935-7 0  9994
2 43152  97.4265 280.3811 0001685  99.0507  75.3352 15.22387549206046
XIAOXIANG-2             
1 43155U 18008A   21276.89093912  .00002303  00000-0  13457-3 0  9995
2 43155  97.3916 338.5581 0015976 318.0630 157.3266 15.12764800204467
ZHOU ENLAI              
1 43156U 18008B   21276.85559920  .00002887  00000-0  16964-3 0  9991
2 43156  97.3962 338.3623 0013119 318.8065 170.7003 15.12397745204391
KIPP                    
1 43157U 18008C   21276.70770332  .00002646  00000-0  15698-3 0  9994
2 43157  97.4009 338.2816 0013847 314.6642  45.3460 15.12113821204341
QUANTUTONG 1            
1 43158U 18008D   21276.70565694  .00002501  00000-0  15001-3 0  9996
2 43158  97.3908 336.6331 0012456 319.8686 157.9404 15.11782152204293
JILIN-01-07             
1 43159U 18008E   21276.91502380  .00001133  00000-0  72625-4 0  9999
2 43159  97.3848 335.0339 0012494 321.9698 151.6816 15.10407012204259
JILIN-01-08             
1 43160U 18008F   21276.86713146  .00000537  00000-0  36396-4 0  9991
2 43160  97.3840 334.8593 0009125 339.3988 138.9687 15.10434807204249
SBIRS GEO-3 (USA 282)   
1 43162U 18009A   21276.53804881 -.00000298  00000-0  00000+0 0  9998
2 43162   4.0433 317.5678 0002405 235.7740 151.8271  1.00271613 13615
LEMUR-2-MARSHALL        
1 43165U 18010C   21276.55252026  .00003656  00000-0  15117-3 0  9992
2 43165  82.9151 310.0130 0029606 160.6048 199.6324 15.23224889205323
LEMUR-2-TALLHAMN-ATC    
1 43167U 18010E   21276.55104240  .00003226  00000-0  14504-3 0  9990
2 43167  82.9191 314.7697 0023139 179.6264 180.4994 15.20507194205032
WEINA 1A                
1 43169U 18011A   21276.77389601  .00000461  00000-0  49679-4 0  9993
2 43169  35.0004  56.4226 0004275 313.2414  46.7943 14.89965129201042
YAOGAN 30 K             
1 43170U 18011B   21276.73119206  .00000524  00000-0  56038-4 0  9990
2 43170  34.9983  56.8614 0005722 220.9336 139.0944 14.89988177201032
YAOGAN 30 L             
1 43171U 18011C   21276.85881136  .00000536  00000-0  57309-4 0  9997
2 43171  34.9977  55.9396 0003636 270.3491  89.6817 14.89996071201059
YAOGAN 30 M             
1 43172U 18011D   21276.85481699  .00000499  00000-0  53497-4 0  9990
2 43172  34.9994  56.0546 0004881 306.5932  53.4326 14.89991849201055
AL YAH 3                
1 43174U 18012A   21276.72164301 -.00000158  00000-0  00000+0 0  9997
2 43174   0.0251 263.2573 0001935 292.5492  56.5556  1.00270312 13617
SES-14                  
1 43175U 18012B   21276.50089389 -.00000281  00000-0  00000-0 0  9994
2 43175   0.0139 260.2063 0000968 293.7589 311.3084  1.00270980 13843
KANOPUS-V 3             
1 43180U 18014A   21276.91735250 -.00001142  00000-0 -50577-4 0  9998
2 43180  97.4358 184.2880 0001004 103.0991 324.7939 15.19564811203556
KANOPUS-V 4             
1 43181U 18014B   21276.69576082 -.00003448  00000-0 -15929-3 0  9992
2 43181  97.4371 184.1145 0002633  81.6000   2.1343 15.19536898203534
LEMUR-2-JIN-LUEN        
1 43182U 18014C   21276.29588442  .00001876  00000-0  16618-3 0  9999
2 43182  97.6583 180.0929 0015720  83.1816 277.1194 14.97349177200396
LEMUR-2-URAMCHANSOL     
1 43183U 18014D   21276.71224745  .00000934  00000-0  85083-4 0  9997
2 43183  97.6589 180.6567 0015316  81.2422 279.0534 14.97428877200462
LEMUR-2-KADI            
1 43184U 18014E   21276.71714568  .00000792  00000-0  73100-4 0  9994
2 43184  97.6581 180.6506 0015031  82.7046 277.5884 14.97324154200464
LEMUR-2-THENICKMOLO     
1 43185U 18014F   21276.30076064  .00001352  00000-0  12103-3 0  9990
2 43185  97.6603 180.3598 0015368  84.0598 276.2375 14.97391918200405
S-NET D                 
1 43186U 18014G   21276.69916612  .00001042  00000-0  95054-4 0  9998
2 43186  97.6680 182.2907 0012788  80.2473 280.0192 14.97160987200498
S-NET B                 
1 43187U 18014H   21276.49862213  .00001069  00000-0  97381-4 0  9998
2 43187  97.6677 182.0564 0012793  80.8122 279.4547 14.97159950200466
S-NET A                 
1 43188U 18014J   21276.29825137  .00001063  00000-0  96869-4 0  9995
2 43188  97.6681 181.9096 0012796  81.5036 278.7635 14.97158205200434
S-NET C                 
1 43189U 18014K   21276.69975617  .00000998  00000-0  91289-4 0  9996
2 43189  97.6677 182.2454 0012783  80.0826 280.1839 14.97159051199046
FENGMANIU-1 (FMN-1)     
1 43192U 18015A   21276.89302196  .00009497  00000-0  33838-3 0  9997
2 43192  97.5024  52.9584 0013330 215.7550 262.9005 15.29060688204157
ZHANGHENG 1 (CSES)      
1 43194U 18015C   21276.88304738  .00003354  00000-0  15514-3 0  9999
2 43194  97.4918  43.5549 0009553 253.6800 221.5683 15.20810869203627
NUSAT-4 (ADA)           
1 43195U 18015D   21276.87283470  .00004548  00000-0  17748-3 0  9995
2 43195  97.5007  50.7216 0015395 229.5641 282.1537 15.26329872204059
GOMX-4B                 
1 43196U 18015E   21276.33808296  .00001726  00000-0  71603-4 0  9992
2 43196  97.4996  49.4291 0016797 238.3204 121.6396 15.25147320203957
GOMX-4A                 
1 43197U 18015F   21276.90972178  .00003199  00000-0  12758-3 0  9998
2 43197  97.4985  50.3526 0017125 237.2655 241.2059 15.25812464204079
SHAONIAN XING           
1 43199U 18015H   21276.76933944  .00006319  00000-0  23176-3 0  9995
2 43199  97.4816  49.5713 0014540 226.1241 270.4163 15.28239873204180
NUSAT-5 (MARYAM)        
1 43204U 18015K   21276.91465426  .00004719  00000-0  18266-3 0  9990
2 43204  97.5018  51.1867 0014914 230.7604 247.0306 15.26589302203686
BEIDOU-3 M5             
1 43207U 18018A   21275.95301597  .00000069  00000-0  00000+0 0  9994
2 43207  55.3707 120.4478 0005092 357.8053   2.2901  1.86231779 24743
BEIDOU-3 M6             
1 43208U 18018B   21276.01974628  .00000070  00000-0  00000+0 0  9996
2 43208  55.3699 120.4507 0005840 311.2658  48.7810  1.86231796 24746
PAZ                     
1 43215U 18020A   21276.87706200  .00000364  00000-0  20519-4 0  9998
2 43215  97.4466 282.9070 0001665  91.1262  26.8792 15.19152778200293
GOES 17                 
1 43226U 18022A   21276.48581564  .00000095  00000-0  00000-0 0  9993
2 43226   0.0552 295.3245 0000245 285.9021 188.8792  1.00271609 13215
HISPASAT 30W-6          
1 43228U 18023A   21276.43262206 -.00000219  00000-0  00000-0 0  9999
2 43228   0.0203  81.9308 0002186  91.8320 324.3643  1.00268302 13242
PODSAT                  
1 43229U 18023B   21274.59089510  .00145456  40477-6  84145-3 0  9995
2 43229  26.9120 325.8216 4803856   8.6116 357.3976  6.13937818 67475
